SL-14 R/B               
1 21423U 91042B   26037.62805232  .00000501  00000+0  60392-4 0  9993
2 21423  82.4900 249.3169 0016725 348.3314  11.7510 14.81799931848476
ERS-1                   
1 21574U 91050A   26037.62568436  .00000466  00000+0  16376-3 0  9993
2 21574  98.7896  55.0791 0030959 295.2900  64.5080 14.39423614811266
ARIANE 40 R/B           
1 21610U 91050F   26037.61179552  .00000424  00000+0  13942-3 0  9990
2 21610  98.2078  91.0046 0003694 150.4286 209.7114 14.42870320814518
INTERCOSMOS 25          
1 21819U 91086A   26037.20133260  .00001072  00000+0  20776-3 0  9994
2 21819  82.6087 329.0361 1486652 184.7696 173.7737 12.11913022492878
SL-8 R/B                
1 21876U 92008B   26037.67142335  .00000065  00000+0  51181-4 0  9992
2 21876  82.9267 290.8532 0033725 219.8485 200.1985 13.75969535705152
SL-8 R/B                
1 21938U 92020B   26036.99366729  .00000137  00000+0  12653-3 0  9994
2 21938  82.9325 177.2878 0029471  28.6953 110.6269 13.75544599696772
USA 81                  
1 21949U 92023A   26037.29255872  .00000296  00000+0  10237-3 0  9991
2 21949  85.0120 149.5445 0002569 105.5448 254.6028 14.32356123 90291
COSMOS 2219             
1 22219U 92076A   26037.53753505 -.00000143  00000+0 -50027-4 0  9998
2 22219  71.0586  83.1949 0020430 250.0379 109.8543 14.14076896713977
SL-16 R/B               
1 22220U 92076B   26037.63233303  .00000189  00000+0  11832-3 0  9998
2 22220  70.9979 253.7965 0011638 151.4528 268.1137 14.16855042717439
COSMOS 2221             
1 22236U 92080A   26037.20347846  .00002860  00000+0  25202-3 0  9995
2 22236  82.5060 309.2348 0013062 303.2076  56.7893 14.96073088776082
SL-16 R/B               
1 22285U 92093B   26037.50325412 -.00000167  00000+0 -61228-4 0  9990
2 22285  71.0202  69.7371 0005097 326.2555  33.8243 14.15441314708742
COSMOS 2228             
1 22286U 92094A   26037.64145064  .00003054  00000+0  26197-3 0  9991
2 22286  82.5156 267.0418 0019240  49.3499 310.9392 14.97048007771418
