CCSDS_OMM_VERS = 2.0
CREATION_DATE  = 
ORIGINATOR     = 

OBJECT_NAME    = SL-14 R/B
OBJECT_ID      = 1991-042B
CENTER_NAME    = EARTH
REF_FRAME      = TEME
TIME_SYSTEM    = UTC
MEAN_ELEMENT_THEORY = SGP/SGP4

EPOCH          = 2026-02-06T15:04:23.720448
MEAN_MOTION    = 14.81799931
ECCENTRICITY   = .00167254
INCLINATION    = 82.4900
RA_OF_ASC_NODE = 249.3169
ARG_OF_PERICENTER = 348.3314
MEAN_ANOMALY   = 11.7510

EPHEMERIS_TYPE = 0
CLASSIFICATION_TYPE = U
NORAD_CAT_ID   = 21423
ELEMENT_SET_NO = 999
REV_AT_EPOCH   = 84847
BSTAR          = .60391793E-4
MEAN_MOTION_DOT = .501E-5
MEAN_MOTION_DDOT = 0

CCSDS_OMM_VERS = 2.0
CREATION_DATE  = 
ORIGINATOR     = 

OBJECT_NAME    = ERS-1
OBJECT_ID      = 1991-050A
CENTER_NAME    = EARTH
REF_FRAME      = TEME
TIME_SYSTEM    = UTC
MEAN_ELEMENT_THEORY = SGP/SGP4

EPOCH          = 2026-02-06T15:00:59.128704
MEAN_MOTION    = 14.39423614
ECCENTRICITY   = .00309596
INCLINATION    = 98.7896
RA_OF_ASC_NODE = 55.0791
ARG_OF_PERICENTER = 295.2900
MEAN_ANOMALY   = 64.5080

EPHEMERIS_TYPE = 0
CLASSIFICATION_TYPE = U
NORAD_CAT_ID   = 21574
ELEMENT_SET_NO = 999
REV_AT_EPOCH   = 81126
BSTAR          = .16376455E-3
MEAN_MOTION_DOT = .466E-5
MEAN_MOTION_DDOT = 0

CCSDS_OMM_VERS = 2.0
CREATION_DATE  = 
ORIGINATOR     = 

OBJECT_NAME    = ARIANE 40 R/B
OBJECT_ID      = 1991-050F
CENTER_NAME    = EARTH
REF_FRAME      = TEME
TIME_SYSTEM    = UTC
MEAN_ELEMENT_THEORY = SGP/SGP4

EPOCH          = 2026-02-06T14:40:59.132928
MEAN_MOTION    = 14.42870320
ECCENTRICITY   = .00036943
INCLINATION    = 98.2078
RA_OF_ASC_NODE = 91.0046
ARG_OF_PERICENTER = 150.4286
MEAN_ANOMALY   = 209.7114

EPHEMERIS_TYPE = 0
CLASSIFICATION_TYPE = U
NORAD_CAT_ID   = 21610
ELEMENT_SET_NO = 999
REV_AT_EPOCH   = 81451
BSTAR          = .13941643E-3
MEAN_MOTION_DOT = .424E-5
MEAN_MOTION_DDOT = 0

CCSDS_OMM_VERS = 2.0
CREATION_DATE  = 
ORIGINATOR     = 

OBJECT_NAME    = INTERCOSMOS 25
OBJECT_ID      = 1991-086A
CENTER_NAME    = EARTH
REF_FRAME      = TEME
TIME_SYSTEM    = UTC
MEAN_ELEMENT_THEORY = SGP/SGP4

EPOCH          = 2026-02-06T04:49:55.136640
MEAN_MOTION    = 12.11913022
ECCENTRICITY   = .1486652
INCLINATION    = 82.6087
RA_OF_ASC_NODE = 329.0361
ARG_OF_PERICENTER = 184.7696
MEAN_ANOMALY   = 173.7737

EPHEMERIS_TYPE = 0
CLASSIFICATION_TYPE = U
NORAD_CAT_ID   = 21819
ELEMENT_SET_NO = 999
REV_AT_EPOCH   = 49287
BSTAR          = .20776E-3
MEAN_MOTION_DOT = .1072E-4
MEAN_MOTION_DDOT = 0

CCSDS_OMM_VERS = 2.0
CREATION_DATE  = 
ORIGINATOR     = 

OBJECT_NAME    = SL-8 R/B
OBJECT_ID      = 1992-008B
CENTER_NAME    = EARTH
REF_FRAME      = TEME
TIME_SYSTEM    = UTC
MEAN_ELEMENT_THEORY = SGP/SGP4

EPOCH          = 2026-02-06T16:06:50.977440
MEAN_MOTION    = 13.75969535
ECCENTRICITY   = .00337257
INCLINATION    = 82.9267
RA_OF_ASC_NODE = 290.8532
ARG_OF_PERICENTER = 219.8485
MEAN_ANOMALY   = 200.1985

EPHEMERIS_TYPE = 0
CLASSIFICATION_TYPE = U
NORAD_CAT_ID   = 21876
ELEMENT_SET_NO = 999
REV_AT_EPOCH   = 70515
BSTAR          = .51181452E-4
MEAN_MOTION_DOT = .65E-6
MEAN_MOTION_DDOT = 0

CCSDS_OMM_VERS = 2.0
CREATION_DATE  = 
ORIGINATOR     = 

OBJECT_NAME    = SL-8 R/B
OBJECT_ID      = 1992-020B
CENTER_NAME    = EARTH
REF_FRAME      = TEME
TIME_SYSTEM    = UTC
MEAN_ELEMENT_THEORY = SGP/SGP4

EPOCH          = 2026-02-05T23:50:52.853856
MEAN_MOTION    = 13.75544599
ECCENTRICITY   = .00294719
INCLINATION    = 82.9325
RA_OF_ASC_NODE = 177.2878
ARG_OF_PERICENTER = 28.6953
MEAN_ANOMALY   = 110.6269

EPHEMERIS_TYPE = 0
CLASSIFICATION_TYPE = U
NORAD_CAT_ID   = 21938
ELEMENT_SET_NO = 999
REV_AT_EPOCH   = 69677
BSTAR          = .12652933E-3
MEAN_MOTION_DOT = .137E-5
MEAN_MOTION_DDOT = 0

CCSDS_OMM_VERS = 2.0
CREATION_DATE  = 
ORIGINATOR     = 

OBJECT_NAME    = USA 81
OBJECT_ID      = 1992-023A
CENTER_NAME    = EARTH
REF_FRAME      = TEME
TIME_SYSTEM    = UTC
MEAN_ELEMENT_THEORY = SGP/SGP4

EPOCH          = 2026-02-06T07:01:17.073408
MEAN_MOTION    = 14.32356123
ECCENTRICITY   = .0002569
INCLINATION    = 85.0120
RA_OF_ASC_NODE = 149.5445
ARG_OF_PERICENTER = 105.5448
MEAN_ANOMALY   = 254.6028

EPHEMERIS_TYPE = 0
CLASSIFICATION_TYPE = U
NORAD_CAT_ID   = 21949
ELEMENT_SET_NO = 999
REV_AT_EPOCH   = 9029
BSTAR          = .10237E-3
MEAN_MOTION_DOT = .296E-5
MEAN_MOTION_DDOT = 0

CCSDS_OMM_VERS = 2.0
CREATION_DATE  = 
ORIGINATOR     = 

OBJECT_NAME    = COSMOS 2219
OBJECT_ID      = 1992-076A
CENTER_NAME    = EARTH
REF_FRAME      = TEME
TIME_SYSTEM    = UTC
MEAN_ELEMENT_THEORY = SGP/SGP4

EPOCH          = 2026-02-06T12:54:03.028320
MEAN_MOTION    = 14.14076896
ECCENTRICITY   = .00204301
INCLINATION    = 71.0586
RA_OF_ASC_NODE = 83.1949
ARG_OF_PERICENTER = 250.0379
MEAN_ANOMALY   = 109.8543

EPHEMERIS_TYPE = 0
CLASSIFICATION_TYPE = U
NORAD_CAT_ID   = 22219
ELEMENT_SET_NO = 999
REV_AT_EPOCH   = 71397
BSTAR          = -.50027152E-4
MEAN_MOTION_DOT = -.143E-5
MEAN_MOTION_DDOT = 0

CCSDS_OMM_VERS = 2.0
CREATION_DATE  = 
ORIGINATOR     = 

OBJECT_NAME    = SL-16 R/B
OBJECT_ID      = 1992-076B
CENTER_NAME    = EARTH
REF_FRAME      = TEME
TIME_SYSTEM    = UTC
MEAN_ELEMENT_THEORY = SGP/SGP4

EPOCH          = 2026-02-06T15:10:33.573792
MEAN_MOTION    = 14.16855042
ECCENTRICITY   = .00116388
INCLINATION    = 70.9979
RA_OF_ASC_NODE = 253.7965
ARG_OF_PERICENTER = 151.4528
MEAN_ANOMALY   = 268.1137

EPHEMERIS_TYPE = 0
CLASSIFICATION_TYPE = U
NORAD_CAT_ID   = 22220
ELEMENT_SET_NO = 999
REV_AT_EPOCH   = 71743
BSTAR          = .11832285E-3
MEAN_MOTION_DOT = .189E-5
MEAN_MOTION_DDOT = 0

CCSDS_OMM_VERS = 2.0
CREATION_DATE  = 
ORIGINATOR     = 

OBJECT_NAME    = COSMOS 2221
OBJECT_ID      = 1992-080A
CENTER_NAME    = EARTH
REF_FRAME      = TEME
TIME_SYSTEM    = UTC
MEAN_ELEMENT_THEORY = SGP/SGP4

EPOCH          = 2026-02-06T04:53:00.538944
MEAN_MOTION    = 14.96073088
ECCENTRICITY   = .0013062
INCLINATION    = 82.5060
RA_OF_ASC_NODE = 309.2348
ARG_OF_PERICENTER = 303.2076
MEAN_ANOMALY   = 56.7893

EPHEMERIS_TYPE = 0
CLASSIFICATION_TYPE = U
NORAD_CAT_ID   = 22236
ELEMENT_SET_NO = 999
REV_AT_EPOCH   = 77608
BSTAR          = .25202E-3
MEAN_MOTION_DOT = .286E-4
MEAN_MOTION_DDOT = 0

CCSDS_OMM_VERS = 2.0
CREATION_DATE  = 
ORIGINATOR     = 

OBJECT_NAME    = SL-16 R/B
OBJECT_ID      = 1992-093B
CENTER_NAME    = EARTH
REF_FRAME      = TEME
TIME_SYSTEM    = UTC
MEAN_ELEMENT_THEORY = SGP/SGP4

EPOCH          = 2026-02-06T12:04:41.155968
MEAN_MOTION    = 14.15441314
ECCENTRICITY   = .00050978
INCLINATION    = 71.0202
RA_OF_ASC_NODE = 69.7371
ARG_OF_PERICENTER = 326.2555
MEAN_ANOMALY   = 33.8243

EPHEMERIS_TYPE = 0
CLASSIFICATION_TYPE = U
NORAD_CAT_ID   = 22285
ELEMENT_SET_NO = 999
REV_AT_EPOCH   = 70874
BSTAR          = -.61228126E-4
MEAN_MOTION_DOT = -.167E-5
MEAN_MOTION_DDOT = 0

CCSDS_OMM_VERS = 2.0
CREATION_DATE  = 
ORIGINATOR     = 

OBJECT_NAME    = COSMOS 2228
OBJECT_ID      = 1992-094A
CENTER_NAME    = EARTH
REF_FRAME      = TEME
TIME_SYSTEM    = UTC
MEAN_ELEMENT_THEORY = SGP/SGP4

EPOCH          = 2026-02-06T15:23:41.335296
MEAN_MOTION    = 14.97048007
ECCENTRICITY   = .00192403
INCLINATION    = 82.5156
RA_OF_ASC_NODE = 267.0418
ARG_OF_PERICENTER = 49.3499
MEAN_ANOMALY   = 310.9392

EPHEMERIS_TYPE = 0
CLASSIFICATION_TYPE = U
NORAD_CAT_ID   = 22286
ELEMENT_SET_NO = 999
REV_AT_EPOCH   = 77141
BSTAR          = .26196743E-3
MEAN_MOTION_DOT = .3054E-4
MEAN_MOTION_DDOT = 0

